ALOS-4 (DAICHI-4)       
1 60182U 24123A   24256.78172095  .00002947  00000+0  40122-3 0  9990
2 60182  97.9207 352.1818 0001588  98.2177 261.9214 14.79481965 10894
